OBJECT_NAME,OBJECT_ID,EPOCH,MEAN_MOTION,ECCENTRICITY,INCLINATION,RA_OF_ASC_NODE,ARG_OF_PERICENTER,MEAN_ANOMALY,EPHEMERIS_TYPE,CLASSIFICATION_TYPE,NORAD_CAT_ID,ELEMENT_SET_NO,REV_AT_EPOCH,BSTAR,MEAN_MOTION_DOT,MEAN_MOTION_DDOT
LEMUR-1,2014-033AL,2026-07-17T04:55:23.351232,14.85340073,.0047562,97.7912,347.3507,341.2591,18.6872,0,U,40044,999,64992,.89273E-4,.727E-5,0
LEMUR-2-GREENBERG,2017-042N,2026-07-17T11:07:13.333728,15.32196006,.0007286,97.3832,18.9701,249.8308,110.2151,0,U,42837,999,49302,.3003E-3,.9265E-4,0
LEMUR-2-ANDIS,2017-042P,2026-07-17T11:39:27.436608,15.35982336,.00073,97.3686,19.2858,248.4684,111.5782,0,U,42838,999,49310,.3316E-3,.11549E-3,0
LEMUR-2-MONSON,2017-042Q,2026-07-17T11:21:11.831904,15.28788408,.0005447,97.4093,18.9043,235.4032,124.6694,0,U,42839,999,49279,.26317E-3,.7291E-4,0
LEMUR-2-FURIAUS,2017-042R,2026-07-17T17:44:26.137824,15.31180191,.000577,97.3782,17.1311,318.6240,41.4564,0,U,42840,999,49288,.28385E-3,.8477E-4,0
LEMUR-2-PETERG,2017-042S,2026-07-17T11:42:38.683872,15.35080210,.0003443,97.3996,23.5949,210.5338,149.5706,0,U,42841,999,49308,.28995E-3,.9793E-4,0
LEMUR-2-DEMBITZ,2017-042T,2026-07-17T05:40:03.761760,15.31146418,.0005078,97.3830,19.6761,264.8229,95.2433,0,U,42842,999,49294,.29729E-3,.8872E-4,0
LEMUR-2-ZACHARY,2017-042W,2026-07-17T16:39:54.170208,15.52870821,.0002708,97.3573,31.0368,233.1685,126.9320,0,U,42845,999,49393,.47686E-3,.29567E-3,0
LEMUR-2-AMANDA-SVANTE,2021-034B,2026-07-17T15:58:39.586944,15.36053849,.0004673,97.5746,277.7938,136.9564,223.2045,0,U,48269,999,28573,.5035E-3,.17621E-3,0
LEMUR-2-SPECIAL-K,2021-034F,2026-07-17T16:24:57.777984,15.75603869,.0006295,97.5644,287.9978,213.2091,146.8779,0,U,48273,999,28647,.11187E-2,.173412E-2,0
LEMUR-2-EMBRIONOVIS,2023-084AQ,2026-07-17T09:24:04.389408,15.38265409,.0008544,97.6328,343.7724,198.0481,162.0461,0,U,56970,999,17232,.20525E-3,.7659E-4,0
LEMUR-2-DEVERILL-M-T,2023-100F,2026-07-17T13:38:14.870688,15.41163271,.0004715,99.4446,246.1369,287.0289,73.0435,0,U,57391,999,16592,.33582E-3,.13814E-3,0
LEMUR-2-BASS,2023-174D,2026-07-17T16:17:00.072384,15.44044995,.0007505,97.3842,283.8373,70.6104,289.5955,0,U,58259,999,15006,.20724E-3,.938E-4,0
LEMUR-2-JK0903EM1407,2023-174CJ,2026-07-17T16:42:23.700096,15.53151486,.0003392,97.3921,290.0597,23.7354,336.4055,0,U,58336,999,15046,.24232E-3,.15102E-3,0
LEMUR-2-MJR092620,2023-174CN,2026-07-17T17:17:21.485184,15.45919283,.000509,97.3972,289.3352,21.3895,338.7566,0,U,58340,999,15036,.22091E-3,.10661E-3,0
LEMUR-2-NIMBUS2000,2024-022A,2026-07-17T12:59:04.520256,15.41176180,.000852,97.4077,48.9446,20.8268,339.3324,0,U,58899,999,13694,.28409E-3,.11714E-3,0
LEMUR-2-VALHALLA,2024-022B,2026-07-17T13:07:27.983424,15.40531219,.0008965,97.4075,48.9180,16.2163,343.9368,0,U,58900,999,13694,.21353E-3,.8595E-4,0
LEMUR-2-CAEL,2024-022E,2026-07-17T12:43:43.860864,15.41903062,.0006839,97.4057,49.8920,1.1188,359.0073,0,U,58903,999,13701,.21963E-3,.9251E-4,0
LEMUR-2-JOHNNYTRUONG,2024-043BA,2026-07-17T09:29:02.111712,15.62680669,.0003999,97.5399,352.0252,87.7380,272.4335,0,U,59146,999,13275,.29849E-3,.26658E-3,0
LEMUR-2-TOMATOKECHUP,2024-149D,2026-07-16T11:34:09.058656,15.36597838,.0003348,97.3796,279.6140,120.3105,239.8471,0,U,60471,999,10666,.16419E-3,.5784E-4,0
LEMUR-2-STELLA,2024-149BT,2026-07-17T04:34:57.477792,15.12393884,.00012249,97.6732,280.7889,121.9085,238.2264,0,U,60533,999,10503,.34171112E-3,.5866E-4,0
LEMUR-2-MARHISYAM,2024-149BW,2026-07-17T04:22:59.882592,15.11799755,.00022914,97.6875,281.2593,66.0951,294.0519,0,U,60536,999,10501,.34433031E-3,.5814E-4,0
LEMUR-2-AHMED-ASRAR,2024-149DN,2026-07-17T17:11:11.448672,15.13338404,.0001438,97.7001,284.0092,194.8543,165.2645,0,U,60576,999,10518,.35934E-3,.6337E-4,0
LEMUR-2-LLOYD,2024-149DP,2026-07-17T11:14:23.775072,15.09772996,.0004571,97.6738,279.6238,66.7022,293.4687,0,U,60577,999,10496,.27644E-3,.44E-4,0
LEMUR-2-SQUIRRELCOMM,2024-149DQ,2026-07-17T11:03:00.421056,15.07457788,.0004033,97.6703,279.2816,316.9896,43.1016,0,U,60578,999,10496,.16679E-3,.2465E-4,0
LEMUR-2-SIERRINI,2024-149DR,2026-07-17T11:26:24.384768,15.11538566,.0006386,97.6836,281.2142,85.0986,275.0973,0,U,60579,999,10503,.3027E-3,.5067E-4,0
LEMUR-2-STAR-FOX,2025-009CR,2026-07-17T04:34:53.327136,15.02855199,.00019867,97.6903,279.5841,34.7534,325.3820,0,U,62696,999,8206,.26998749E-3,.3558E-4,0
LEMUR-2-ARIANNA,2025-009CU,2026-07-17T04:32:40.632288,15.02857687,.00023394,97.6845,279.3334,42.8979,317.2428,0,U,62699,999,8206,.28272678E-3,.3729E-4,0
LEMUR-2-ALISIA,2025-009DB,2026-07-17T11:51:31.873824,15.03194149,.000459,97.6967,280.4652,122.6603,237.5065,0,U,62706,999,10471,.28718E-3,.3823E-4,0
